QIANFAN-52              
1 62253U 24232S   26062.45882980  .00000064  00000+0  79994-4 0  9992
2 62253  89.0049  32.9583 0014299 326.4227  33.6017 13.51000472 78841
QIANFAN-53              
1 62254U 24232T   26062.43823016  .00000069  00000+0  88013-4 0  9993
2 62254  89.0056  33.0709 0013226 328.2810  31.7543 13.51003264 78800
QIANFAN-54              
1 62255U 24232U   26062.40534396  .00000075  00000+0  97912-4 0  9996
2 62255  89.0048  32.7457 0003248  42.5294 317.6108 13.51002651110307
QIANFAN-55              
1 62785U 25016A   26062.50544670  .00000056  00000+0  68298-4 0  9996
2 62785  88.9695  94.8552 0019374 113.2843 247.0349 13.50996106 58095
QIANFAN-56              
1 62786U 25016B   26062.44775803  .00000070  00000+0  89338-4 0  9998
2 62786  88.9668  94.6757 0018005 115.4000 244.9017 13.50998028 58138
QIANFAN-57              
1 62787U 25016C   26062.48073461  .00000067  00000+0  85642-4 0  9994
2 62787  88.9699  94.8509 0001358  96.6059 263.5247 13.50996923 58108
QIANFAN-58              
1 62788U 25016D   26062.45187075  .00000060  00000+0  73404-4 0  9995
2 62788  88.9669  94.6606 0015977 108.4581 251.8309 13.50998476 58144
QIANFAN-59              
1 62789U 25016E   26062.47670403  .00000057  00000+0  68851-4 0  9996
2 62789  88.9692  94.7509 0016310 111.7253 248.5636 13.50994399 58145
QIANFAN-60              
1 62790U 25016F   26062.43556627  .00000054  00000+0  64365-4 0  9998
2 62790  88.9673  94.7112 0017891 108.9051 251.4041 13.50992386 58120
QIANFAN-61              
1 62791U 25016G   26062.46848823  .00000052  00000+0  61340-4 0  9992
2 62791  88.9740  94.9258 0016816 108.1316 252.1668 13.50993719 58147
QIANFAN-62              
1 62792U 25016H   26062.47253726  .00000048  00000+0  54959-4 0  9999
2 62792  88.9687  94.7500 0018200 108.5686 251.7444 13.50996403 58138
QIANFAN-63              
1 62793U 25016J   26062.49725670  .00000062  00000+0  76886-4 0  9993
2 62793  88.9694  94.7044 0018221 113.2907 247.0164 13.50995028 58175
QIANFAN-64              
1 62794U 25016K   26062.46437799  .00000045  00000+0  50574-4 0  9990
2 62794  88.9680  94.6710 0016202 106.9228 253.3701 13.50992974 58165
QIANFAN-65              
1 62795U 25016L   26062.46017707  .00000058  00000+0  71011-4 0  9997
2 62795  88.9677  94.6946 0016044 108.4024 251.8873 13.51008605 58149
QIANFAN-66              
1 62796U 25016M   26062.48896497  .00000063  00000+0  79327-4 0  9995
2 62796  88.9696  94.6776 0017173 104.6432 255.6624 13.50996747 58190
QIANFAN-67              
1 62797U 25016N   26062.49302227  .00000050  00000+0  58799-4 0  9996
2 62797  88.9686  94.6948 0017100 110.6926 249.6060 13.50995066 58163
QIANFAN-68              
1 62798U 25016P   26062.48494924  .00000065  00000+0  81821-4 0  9990
2 62798  88.9690  94.7438 0017161 109.1404 251.1607 13.51005054 58148
