[{"OBJECT_NAME":"QIANFAN-52","OBJECT_ID":"2024-232S","EPOCH":"2026-03-03T11:00:42.894720","MEAN_MOTION":13.51000472,"ECCENTRICITY":0.0014299,"INCLINATION":89.0049,"RA_OF_ASC_NODE":32.9583,"ARG_OF_PERICENTER":326.4227,"MEAN_ANOMALY":33.6017,"EPHEMERIS_TYPE":0,"CLASSIFICATION_TYPE":"U","NORAD_CAT_ID":62253,"ELEMENT_SET_NO":999,"REV_AT_EPOCH":7884,"BSTAR":7.9994e-5,"MEAN_MOTION_DOT":6.4e-7,"MEAN_MOTION_DDOT":0},{"OBJECT_NAME":"QIANFAN-53","OBJECT_ID":"2024-232T","EPOCH":"2026-03-03T10:31:03.085824","MEAN_MOTION":13.51003264,"ECCENTRICITY":0.0013226,"INCLINATION":89.0056,"RA_OF_ASC_NODE":33.0709,"ARG_OF_PERICENTER":328.281,"MEAN_ANOMALY":31.7543,"EPHEMERIS_TYPE":0,"CLASSIFICATION_TYPE":"U","NORAD_CAT_ID":62254,"ELEMENT_SET_NO":999,"REV_AT_EPOCH":7880,"BSTAR":8.8013e-5,"MEAN_MOTION_DOT":6.9e-7,"MEAN_MOTION_DDOT":0},{"OBJECT_NAME":"QIANFAN-54","OBJECT_ID":"2024-232U","EPOCH":"2026-03-03T09:43:41.718144","MEAN_MOTION":13.51002651,"ECCENTRICITY":0.0003248,"INCLINATION":89.0048,"RA_OF_ASC_NODE":32.7457,"ARG_OF_PERICENTER":42.5294,"MEAN_ANOMALY":317.6108,"EPHEMERIS_TYPE":0,"CLASSIFICATION_TYPE":"U","NORAD_CAT_ID":62255,"ELEMENT_SET_NO":999,"REV_AT_EPOCH":11030,"BSTAR":9.7912e-5,"MEAN_MOTION_DOT":7.5e-7,"MEAN_MOTION_DDOT":0},{"OBJECT_NAME":"QIANFAN-55","OBJECT_ID":"2025-016A","EPOCH":"2026-03-03T12:07:50.594880","MEAN_MOTION":13.50996106,"ECCENTRICITY":0.0019374,"INCLINATION":88.9695,"RA_OF_ASC_NODE":94.8552,"ARG_OF_PERICENTER":113.2843,"MEAN_ANOMALY":247.0349,"EPHEMERIS_TYPE":0,"CLASSIFICATION_TYPE":"U","NORAD_CAT_ID":62785,"ELEMENT_SET_NO":999,"REV_AT_EPOCH":5809,"BSTAR":6.8298e-5,"MEAN_MOTION_DOT":5.6e-7,"MEAN_MOTION_DDOT":0},{"OBJECT_NAME":"QIANFAN-56","OBJECT_ID":"2025-016B","EPOCH":"2026-03-03T10:44:46.293792","MEAN_MOTION":13.50998028,"ECCENTRICITY":0.0018005,"INCLINATION":88.9668,"RA_OF_ASC_NODE":94.6757,"ARG_OF_PERICENTER":115.4,"MEAN_ANOMALY":244.9017,"EPHEMERIS_TYPE":0,"CLASSIFICATION_TYPE":"U","NORAD_CAT_ID":62786,"ELEMENT_SET_NO":999,"REV_AT_EPOCH":5813,"BSTAR":8.9338e-5,"MEAN_MOTION_DOT":7.0e-7,"MEAN_MOTION_DDOT":0},{"OBJECT_NAME":"QIANFAN-57","OBJECT_ID":"2025-016C","EPOCH":"2026-03-03T11:32:15.470304","MEAN_MOTION":13.50996923,"ECCENTRICITY":0.0001358,"INCLINATION":88.9699,"RA_OF_ASC_NODE":94.8509,"ARG_OF_PERICENTER":96.6059,"MEAN_ANOMALY":263.5247,"EPHEMERIS_TYPE":0,"CLASSIFICATION_TYPE":"U","NORAD_CAT_ID":62787,"ELEMENT_SET_NO":999,"REV_AT_EPOCH":5810,"BSTAR":8.5642e-5,"MEAN_MOTION_DOT":6.7e-7,"MEAN_MOTION_DDOT":0},{"OBJECT_NAME":"QIANFAN-58","OBJECT_ID":"2025-016D","EPOCH":"2026-03-03T10:50:41.632800","MEAN_MOTION":13.50998476,"ECCENTRICITY":0.0015977,"INCLINATION":88.9669,"RA_OF_ASC_NODE":94.6606,"ARG_OF_PERICENTER":108.4581,"MEAN_ANOMALY":251.8309,"EPHEMERIS_TYPE":0,"CLASSIFICATION_TYPE":"U","NORAD_CAT_ID":62788,"ELEMENT_SET_NO":999,"REV_AT_EPOCH":5814,"BSTAR":7.3404e-5,"MEAN_MOTION_DOT":6.0e-7,"MEAN_MOTION_DDOT":0},{"OBJECT_NAME":"QIANFAN-59","OBJECT_ID":"2025-016E","EPOCH":"2026-03-03T11:26:27.228192","MEAN_MOTION":13.50994399,"ECCENTRICITY":0.001631,"INCLINATION":88.9692,"RA_OF_ASC_NODE":94.7509,"ARG_OF_PERICENTER":111.7253,"MEAN_ANOMALY":248.5636,"EPHEMERIS_TYPE":0,"CLASSIFICATION_TYPE":"U","NORAD_CAT_ID":62789,"ELEMENT_SET_NO":999,"REV_AT_EPOCH":5814,"BSTAR":6.8851e-5,"MEAN_MOTION_DOT":5.7e-7,"MEAN_MOTION_DDOT":0},{"OBJECT_NAME":"QIANFAN-60","OBJECT_ID":"2025-016F","EPOCH":"2026-03-03T10:27:12.925728","MEAN_MOTION":13.50992386,"ECCENTRICITY":0.0017891,"INCLINATION":88.9673,"RA_OF_ASC_NODE":94.7112,"ARG_OF_PERICENTER":108.9051,"MEAN_ANOMALY":251.4041,"EPHEMERIS_TYPE":0,"CLASSIFICATION_TYPE":"U","NORAD_CAT_ID":62790,"ELEMENT_SET_NO":999,"REV_AT_EPOCH":5812,"BSTAR":6.4365e-5,"MEAN_MOTION_DOT":5.4e-7,"MEAN_MOTION_DDOT":0},{"OBJECT_NAME":"QIANFAN-61","OBJECT_ID":"2025-016G","EPOCH":"2026-03-03T11:14:37.383072","MEAN_MOTION":13.50993719,"ECCENTRICITY":0.0016816,"INCLINATION":88.974,"RA_OF_ASC_NODE":94.9258,"ARG_OF_PERICENTER":108.1316,"MEAN_ANOMALY":252.1668,"EPHEMERIS_TYPE":0,"CLASSIFICATION_TYPE":"U","NORAD_CAT_ID":62791,"ELEMENT_SET_NO":999,"REV_AT_EPOCH":5814,"BSTAR":6.134e-5,"MEAN_MOTION_DOT":5.2e-7,"MEAN_MOTION_DDOT":0},{"OBJECT_NAME":"QIANFAN-62","OBJECT_ID":"2025-016H","EPOCH":"2026-03-03T11:20:27.219264","MEAN_MOTION":13.50996403,"ECCENTRICITY":0.00182,"INCLINATION":88.9687,"RA_OF_ASC_NODE":94.75,"ARG_OF_PERICENTER":108.5686,"MEAN_ANOMALY":251.7444,"EPHEMERIS_TYPE":0,"CLASSIFICATION_TYPE":"U","NORAD_CAT_ID":62792,"ELEMENT_SET_NO":999,"REV_AT_EPOCH":5813,"BSTAR":5.4959e-5,"MEAN_MOTION_DOT":4.8e-7,"MEAN_MOTION_DDOT":0},{"OBJECT_NAME":"QIANFAN-63","OBJECT_ID":"2025-016J","EPOCH":"2026-03-03T11:56:02.978880","MEAN_MOTION":13.50995028,"ECCENTRICITY":0.0018221,"INCLINATION":88.9694,"RA_OF_ASC_NODE":94.7044,"ARG_OF_PERICENTER":113.2907,"MEAN_ANOMALY":247.0164,"EPHEMERIS_TYPE":0,"CLASSIFICATION_TYPE":"U","NORAD_CAT_ID":62793,"ELEMENT_SET_NO":999,"REV_AT_EPOCH":5817,"BSTAR":7.6886e-5,"MEAN_MOTION_DOT":6.2e-7,"MEAN_MOTION_DDOT":0},{"OBJECT_NAME":"QIANFAN-64","OBJECT_ID":"2025-016K","EPOCH":"2026-03-03T11:08:42.258336","MEAN_MOTION":13.50992974,"ECCENTRICITY":0.0016202,"INCLINATION":88.968,"RA_OF_ASC_NODE":94.671,"ARG_OF_PERICENTER":106.9228,"MEAN_ANOMALY":253.3701,"EPHEMERIS_TYPE":0,"CLASSIFICATION_TYPE":"U","NORAD_CAT_ID":62794,"ELEMENT_SET_NO":999,"REV_AT_EPOCH":5816,"BSTAR":5.0574e-5,"MEAN_MOTION_DOT":4.5e-7,"MEAN_MOTION_DDOT":0},{"OBJECT_NAME":"QIANFAN-65","OBJECT_ID":"2025-016L","EPOCH":"2026-03-03T11:02:39.298848","MEAN_MOTION":13.51008605,"ECCENTRICITY":0.0016044,"INCLINATION":88.9677,"RA_OF_ASC_NODE":94.6946,"ARG_OF_PERICENTER":108.4024,"MEAN_ANOMALY":251.8873,"EPHEMERIS_TYPE":0,"CLASSIFICATION_TYPE":"U","NORAD_CAT_ID":62795,"ELEMENT_SET_NO":999,"REV_AT_EPOCH":5814,"BSTAR":7.1011e-5,"MEAN_MOTION_DOT":5.8e-7,"MEAN_MOTION_DDOT":0},{"OBJECT_NAME":"QIANFAN-66","OBJECT_ID":"2025-016M","EPOCH":"2026-03-03T11:44:06.573408","MEAN_MOTION":13.50996747,"ECCENTRICITY":0.0017173,"INCLINATION":88.9696,"RA_OF_ASC_NODE":94.6776,"ARG_OF_PERICENTER":104.6432,"MEAN_ANOMALY":255.6624,"EPHEMERIS_TYPE":0,"CLASSIFICATION_TYPE":"U","NORAD_CAT_ID":62796,"ELEMENT_SET_NO":999,"REV_AT_EPOCH":5819,"BSTAR":7.9327e-5,"MEAN_MOTION_DOT":6.3e-7,"MEAN_MOTION_DDOT":0},{"OBJECT_NAME":"QIANFAN-67","OBJECT_ID":"2025-016N","EPOCH":"2026-03-03T11:49:57.124128","MEAN_MOTION":13.50995066,"ECCENTRICITY":0.00171,"INCLINATION":88.9686,"RA_OF_ASC_NODE":94.6948,"ARG_OF_PERICENTER":110.6926,"MEAN_ANOMALY":249.606,"EPHEMERIS_TYPE":0,"CLASSIFICATION_TYPE":"U","NORAD_CAT_ID":62797,"ELEMENT_SET_NO":999,"REV_AT_EPOCH":5816,"BSTAR":5.8799e-5,"MEAN_MOTION_DOT":5.0e-7,"MEAN_MOTION_DDOT":0},{"OBJECT_NAME":"QIANFAN-68","OBJECT_ID":"2025-016P","EPOCH":"2026-03-03T11:38:19.614336","MEAN_MOTION":13.51005054,"ECCENTRICITY":0.0017161,"INCLINATION":88.969,"RA_OF_ASC_NODE":94.7438,"ARG_OF_PERICENTER":109.1404,"MEAN_ANOMALY":251.1607,"EPHEMERIS_TYPE":0,"CLASSIFICATION_TYPE":"U","NORAD_CAT_ID":62798,"ELEMENT_SET_NO":999,"REV_AT_EPOCH":5814,"BSTAR":8.1821e-5,"MEAN_MOTION_DOT":6.5e-7,"MEAN_MOTION_DDOT":0}]
